ONEWEB-0645             
1 55809U 23029P   24355.17988039 -.00000326  00000+0 -84660-3 0  9996
2 55809  87.9178  53.1553 0001581  91.6595 268.4719 13.19725698 87846
ONEWEB-0646             
1 55810U 23029Q   24355.13408161  .00000133  00000+0  30097-3 0  9996
2 55810  87.9175  53.1608 0001578 106.0344 254.0962 13.19724283 87823
ONEWEB-0648             
1 55811U 23029R   24354.64187726  .00000101  00000+0  23822-3 0  9996
2 55811  87.9006  37.9913 0000804  84.1460 275.9761 13.14501724 87852
ONEWEB-0649             
1 55812U 23029S   24354.71787619  .00000032  00000+0  46480-4 0  9991
2 55812  87.9174  53.2362 0001253  96.9019 263.2256 13.19727454 87111
ONEWEB-0650             
1 55813U 23029T   24355.16803495 -.00000144  00000+0 -39266-3 0  9992
2 55813  87.9177  53.1522 0001557 102.7094 257.4213 13.19726520 87838
ONEWEB-0652             
1 55814U 23029U   24355.07955213 -.00000122  00000+0 -36293-3 0  9992
2 55814  87.9004  37.9149 0001960  98.0099 262.1254 13.14502595 88572
ONEWEB-0653             
1 55815U 23029V   24355.13980247 -.00000007  00000+0 -52431-4 0  9990
2 55815  87.9009  37.8877 0001908  91.6472 268.4876 13.14504568 88617
ONEWEB-0654             
1 55816U 23029W   24355.13505935  .00000045  00000+0  87127-4 0  9998
2 55816  87.9007  37.8940 0002251  94.1323 266.0064 13.14502291 88638
